[{"OBJECT_NAME":"STARLINK-36202","OBJECT_ID":"2025-298V","EPOCH":"2026-03-09T22:18:08.038080","MEAN_MOTION":14.99160974,"ECCENTRICITY":0.00024266,"INCLINATION":70.0038,"RA_OF_ASC_NODE":13.8431,"ARG_OF_PERICENTER":236.7757,"MEAN_ANOMALY":123.317,"EPHEMERIS_TYPE":0,"CLASSIFICATION_TYPE":"U","NORAD_CAT_ID":67094,"ELEMENT_SET_NO":999,"REV_AT_EPOCH":1325,"BSTAR":0.00049737229,"MEAN_MOTION_DOT":5.975e-5,"MEAN_MOTION_DDOT":0},{"OBJECT_NAME":"SL-8 DEB","OBJECT_ID":"1971-114C","EPOCH":"2026-03-09T10:06:38.914272","MEAN_MOTION":14.97936297,"ECCENTRICITY":0.00069633,"INCLINATION":74.0033,"RA_OF_ASC_NODE":186.861,"ARG_OF_PERICENTER":298.1447,"MEAN_ANOMALY":61.9034,"EPHEMERIS_TYPE":0,"CLASSIFICATION_TYPE":"U","NORAD_CAT_ID":5778,"ELEMENT_SET_NO":999,"REV_AT_EPOCH":88447,"BSTAR":0.0010014796,"MEAN_MOTION_DOT":0.00011794,"MEAN_MOTION_DDOT":0}]
